#dP2019 10 16  0  0  0.00000000      97 __u+U IGS08 FIT  IAC
## 2075 259200.00000000   900.00000000 58772 0.0000000000000
+  111   C01C02C03C04C06C07C08C09C10C11C12C13C14C16C19C20C21
+        C22C23C24C25C26C27C29C30C32C33C34C35C36C37E01E02E03
+        E04E05E07E08E09E11E12E13E14E15E18E19E21E24E25E26E27
+        E30E31E33E36G01G02G03G05G06G07G08G09G10G11G12G13G14
+        G15G16G17G18G19G20G21G22G23G24G25G26G27G28G29G30G31
+        G32J01J02J03R01R02R03R05R07R08R09R11R12R13R14R15R16
+        R17R18R19R20R21R22R23R24R26  0  0  0  0  0  0  0  0
++        13 13 13 13  8  8  8  8  8  7  7  7  7  8  7  7  7
++         7  8  8  8  7  7  7  7  8  8  7  8  8  8  4  4  4
++         4  4  4  4  4  4  4  4  4  4  5  4  4  4  4  4  4
++         4  4  4  4  3  3  3  3  3  3  3  3  3  3  3  3  3
++         3  3  3  3  3  3  3  3  3  3  3  3  3  3  3  3  3
++         3  8  8  8  5  5  5  5  5  5  5  5  5  6  5  5  6
++         5  5  6  6  5  5  5  6  8  0  0  0  0  0  0  0  0
%c M  cc GPS ccc cccc cccc cccc cccc ccccc ccccc ccccc ccccc
%c cc cc ccc ccc cccc cccc cccc cccc ccccc ccccc ccccc ccccc
%f  1.2500000  1.025000000  0.00000000000  0.000000000000000
%f  0.0000000  0.000000000  0.00000000000  0.000000000000000
%i    0    0    0    0      0      0      0      0         0
%i    0    0    0    0      0      0      0      0         0
/* INFORMATION & ANALYSIS CENTER (IAC)            FINAL DATA
/* S/V CLOCKS ARE ALIGNED TO GNSS TIME                      
/* G:C1WC2W R:C1PC2P E:C1XC5X C:C2IC6I J:C1CC2S             
/* PCV:IGS14_2070 OL/AL:FES2004  NONE     YN ORB:CoN CLK:CoN
*  2019 10 16 21 15  0.00000000
PC01 -32271.491213  27101.870059    881.373315     21.711434
PC02   4439.052116  41947.827546   -272.719767    253.917758
PC03 -14793.331709  39464.063072    515.134608    316.307404
PC04 -39574.174591  14500.012024    528.313077   -397.170593
PC06 -13995.903809  20612.478094 -33700.847655    358.925041
PC07 -23485.202437  33050.798598  10787.654591   -199.290580
PC08  -8259.907264  34465.124933  23167.993889    -17.136333
PC09   3699.957587  26717.711587 -32103.208960     45.244927
PC10 -10819.465099  33993.319472  22341.055954   -275.677882
PC11 -14151.312938 -21727.959460 -10164.700167     52.888340
PC12  11737.513362 -10020.815545 -23187.260244    306.018064
PC13   1115.205333  41127.018492   9928.643568   -839.170958
PC14  -6682.670919 -14620.278202  22831.212915     91.253565
PC16  -9245.922145  22283.581356 -34539.350014   -893.429323
PC19  16213.432139   9527.816498 -20605.180474    220.264047
PC20  -3287.402550  17192.364114 -21718.044736   -179.763311
PC21  21465.389770 -14826.227251   9946.600242    250.194858
PC22  26639.172933  -3748.919256  -7480.433684   -233.207718
PC23 -16562.924337   1853.540145 -22368.718950   -904.840999
PC24   2822.903179 -27463.358483  -3990.383033   -882.451360
PC25 -10380.948894 -17687.346263 -18915.457669   -382.278408
PC26  12863.791009 -21345.011864  12529.616825    425.569316
PC27 -12207.104882  10297.834697  22871.939407    208.118706
PC29  20565.774584  18791.018867   1686.599463    133.010275
PC30   5919.905534  20867.718708  17550.540033    209.010956
PC32 -21345.657095  14973.429090  -9928.216818   -892.561067
PC33 -16175.893466  -9544.468337  20632.666359   -475.901045
PC34  -6148.291041 -21007.329821 -17321.128754   -159.217937
PC35  22887.143623   5853.294421 -14832.706361   -451.532578
PC36   9891.670930  18065.249581  18857.801913   -947.664641
PC37 -13544.327769  20681.133766 -12926.688540   -617.998207
PE01 -16968.159660  24251.156646    -76.908143   -711.989997
PE02  16941.834961 -24269.216851     30.087422     85.656842
PE03  15924.239676 -13567.493885  20943.083263   -222.558686
PE04   6152.077426  17148.780505 -23329.065258   -386.701773
PE05  28864.049339  -1999.624146   6258.371631   -439.482050
PE07 -24856.456450 -10673.735015  12004.877392   -284.326483
PE08  -6453.840747 -16949.692599  23388.220636   6276.774883
PE09  24996.727012  10383.487382 -12000.282689   6283.075245
PE11  18445.061075  19712.580526 -12139.885887   5550.213122
PE12   8126.872157  27573.440546   7046.550919   6146.602282
PE13 -18459.640892 -19765.660363  12026.877633    394.248632
PE14  26069.958907  -2096.388617 -16416.357031   -759.174095
PE15  -8506.962981 -27530.569597  -6749.075754    891.340707
PE18 -24268.968972  -7906.755132   5031.934756   -853.660343
PE19 -17879.673311  12566.087838 -19965.372362     -3.389302
PE21 -21417.088297  10500.508923 -17517.389531   -560.646919
PE24  13373.794469   9512.335466  24631.795217   5816.532444
PE25  21419.113709 -10413.512009  17595.001947   1645.572274
PE26 -17691.588818   -257.788248  23729.442551   3986.351048
PE27 -13311.372734  -9509.357141 -24656.956205    365.522600
PE30   2654.294996 -23863.573675 -17306.438580   4461.711990
PE31  -2558.650405  23869.907684  17326.327444   -469.665690
PE33  -6455.920253  19174.145920  21612.418863   -471.165921
PE36  17610.599894    403.445836 -23786.054413    648.841396
PG01 -13838.398630   6406.432080  21504.438134   -164.949621
PG02  13971.768806  16368.391285 -15028.441734   -327.297606
PG03 -22665.837960  12764.545734   5066.778610    -23.300768
PG05  17842.422777   3576.881955 -19552.470714     -2.401175
PG06   6170.664379  25460.757932  -4245.443360    -92.712006
PG07  -7055.986410  21448.209487 -13312.866923   -128.552252
PG08 -25103.873180  -4249.752638   7969.521648    -10.139090
PG09 -11443.171121  11528.285377 -21063.554347    -58.529396
PG10   4286.089317 -19011.001172  18006.883696    -96.812245
PG11 -16124.020777   3942.437801  20177.768615   -476.148599
PG12  23437.208648  -8132.967245   9041.022904    193.352644
PG13  23168.641630  13055.749746    360.686650    -38.462410
PG14 -15744.079889 -17835.344306  12326.317129    -55.756969
PG15  25384.703711   1554.686375   8023.418934   -279.418847
PG16 -15855.207567  -6346.641721 -20647.586728    -83.946334
PG17   6684.680591  17498.120484  19281.031724    145.423386
PG18 -15505.052278  -2932.322521  20874.898581     93.520039
PG19  13369.200283  17930.865196  14008.642929   -252.806915
PG20  11933.606732 -21584.642892   9502.669633    527.221129
PG21   2237.099025 -24492.608539  -9480.347327   -101.305919
PG22 -22352.363539   7514.124446  12343.923522   -764.467494
PG23 -21176.656358   3702.326498 -15500.086762   -161.053112
PG24  15089.864804  -4199.111232  21268.724652     -3.558397
PG25  19042.686904 -17900.560715  -4088.710597    -15.519241
PG26  -7547.315132 -13673.922727 -21484.337690     63.037285
PG27 -23261.161208 -12594.513910  -3931.886046    -89.715302
PG28  -5231.780422  18369.108562  19112.548327    758.799901
PG29  13673.546108  -8742.966914 -21062.239631     69.489853
PG30    -65.981404  26255.497290  -3206.329441    -63.077473
PG31  -6987.647568 -24537.887932  -6486.345905      3.210890
PG32  -7660.284787 -17380.835209  18677.655855     93.658269
PJ01 -35034.240038  19830.429714  -7888.152931   -338.568249
PJ02 -23742.420108  32581.911818  -7957.755910     -5.899541
PJ03 -27683.284413  21661.289236  28348.402296     -4.039921
PR01 -23717.109023   -688.272253   9341.000344     51.272787
PR02 -21326.275880   8405.474983 -11215.526814    393.194298
PR03  -5500.850550  11454.584786 -22091.563887      3.250494
PR05  24538.223002   -307.099086  -6915.646392     37.631524
PR07   4812.071305 -11446.135378  22304.327950    -28.117411
PR08 -13287.368446  -7867.437250  20352.568837     15.025864
PR09  12844.563715 -20012.818143   9344.020428     96.097108
PR11  -4298.244598 -15309.558059 -19939.833578    -82.887396
PR12 -11984.641828   1479.361828 -22436.580378     70.833350
PR13 -13089.927462  18419.756952 -11836.498497    -29.728197
PR14  -6694.497952  23972.501470   5564.128179     44.067567
PR15   3653.013370  15912.946383  19625.661268    104.393291
PR16  12165.778301  -1781.324169  22318.245991      2.335656
PR17   4055.507088  18141.915967  17498.941151    268.829482
PR18  14729.223009  20657.963472   2410.818321     11.160895
PR19  17219.958183  12721.627942 -13878.097936    -59.193390
PR20   9423.619603  -4711.607282 -23222.652805   -393.518136
PR21  -4618.939484 -18418.730474 -17012.552444    -79.165775
PR22 -15859.095608 -20045.838156    645.869714   -180.347575
PR23 -16193.865580  -7557.550930  18190.005525    260.689947
PR24  -7971.627831   6756.243521  23244.107675   -185.773025
PR26  11595.408087  -1663.672575 -22652.473967      1.237616
EOF
